{
    "links": {
        "self": "http://www.neowsapp.com/rest/v1/neo/3753698?api_key=iIulBulltgU6a56xZRHN4H3l9WmuAYTsLGpBGhQ2"
    },
    "id": "3753698",
    "neo_reference_id": "3753698",
    "name": "(2016 LP1)",
    "designation": "2016 LP1",
    "nasa_jpl_url": "http://ssd.jpl.nasa.gov/sbdb.cgi?sstr=3753698",
    "absolute_magnitude_h": 24.3,
    "estimated_diameter": {
        "kilometers": {
            "estimated_diameter_min": 0.0366906138,
            "estimated_diameter_max": 0.0820427065
        },
        "meters": {
            "estimated_diameter_min": 36.6906137531,
            "estimated_diameter_max": 82.0427064882
        },
        "miles": {
            "estimated_diameter_min": 0.0227984834,
            "estimated_diameter_max": 0.0509789586
        },
        "feet": {
            "estimated_diameter_min": 120.3760332259,
            "estimated_diameter_max": 269.1689931548
        }
    },
    "is_potentially_hazardous_asteroid": false,
    "close_approach_data": [
        {
            "close_approach_date": "2016-05-25",
            "close_approach_date_full": "2016-May-25 17:58",
            "epoch_date_close_approach": 1464199080000,
            "relative_velocity": {
                "kilometers_per_second": "11.1083665091",
                "kilometers_per_hour": "39990.1194328288",
                "miles_per_hour": "24848.3050442485"
            },
            "miss_distance": {
                "astronomical": "0.095202095",
                "lunar": "37.033614955",
                "kilometers": "14242030.63153765",
                "miles": "8849587.47361357"
            },
            "orbiting_body": "Earth"
        }
    ],
    "orbital_data": {
        "orbit_id": "7",
        "orbit_determination_date": "2017-04-06 08:25:35",
        "first_observation_date": "2016-06-03",
        "last_observation_date": "2016-06-12",
        "data_arc_in_days": 9,
        "observations_used": 33,
        "orbit_uncertainty": "8",
        "minimum_orbit_intersection": ".0946149",
        "jupiter_tisserand_invariant": "5.065",
        "epoch_osculation": "2457544.5",
        "eccentricity": ".1176951087846092",
        "semi_major_axis": "1.251197137530219",
        "inclination": "21.43765825516341",
        "ascending_node_longitude": "243.4276557482602",
        "orbital_period": "511.1955211497186",
        "perihelion_distance": "1.103937354317608",
        "perihelion_argument": "15.04154503526973",
        "aphelion_distance": "1.39845692074283",
        "perihelion_time": "2457548.934560868474",
        "mean_anomaly": "356.8770424493155",
        "mean_motion": ".7042315221978704",
        "equinox": "J2000",
        "orbit_class": {
            "orbit_class_type": "AMO",
            "orbit_class_description": "Near-Earth asteroid orbits similar to that of 1221 Amor",
            "orbit_class_range": "1.017 AU < q (perihelion) < 1.3 AU"
        }
    },
    "is_sentry_object": false
}